*******************************************************************************
Ephemeris / WWW_USER Mon Jul 15 18:59:19 2024 Pasadena, USA      / Horizons    
*******************************************************************************
Target body name: (2018 RP1)                      {source: JPL#4}
Center body name: Earth (399)                     {source: DE441}
Center-site name: Gemini South Obs., Cerro Pachon
*******************************************************************************
Start time      : A.D. 2019-Jan-16 23:57:00.0000 UT      
Stop  time      : A.D. 2019-Jan-17 09:48:00.0000 UT      
Step-size       : 1 minutes
*******************************************************************************
Target pole/equ : undefined
Target radii    : undefined                                                    
Center geodetic : 289.2634, -30.2406227, 2.71233  {E-lon(deg),Lat(deg),Alt(km)}
Center cylindric: 289.2634,5517.21435,-3194.81213 {E-lon(deg),Dxy(km),Dz(km)}
Center pole/equ : ITRF93                          {East-longitude positive}
Center radii    : 6378.137, 6378.137, 6356.752 km {Equator_a, b, pole_c}       
Target primary  : Sun
Vis. interferer : MOON (R_eq= 1737.400) km        {source: DE441}
Rel. light bend : Sun                             {source: DE441}
Rel. lght bnd GM: 1.3271E+11 km^3/s^2                                          
Small-body perts: Yes                             {source: SB441-N16}
Atmos refraction: NO (AIRLESS)
RA format       : HMS
Time format     : CAL 
Calendar mode   : Mixed Julian/Gregorian
RTS-only print  : NO       
EOP file        : eop.240715.p241008                                           
EOP coverage    : DATA-BASED 1962-JAN-20 TO 2024-JUL-15. PREDICTS-> 2024-OCT-07
Units conversion: 1 au= 149597870.700 km, c= 299792.458 km/s, 1 day= 86400.0 s 
Table cut-offs 1: Elevation (-90.0deg=NO ),Airmass (>38.000=NO), Daylight (YES)
Table cut-offs 2: Solar elongation (  0.0,180.0=NO ),Local Hour Angle( 0.0=NO )
Table cut-offs 3: RA/DEC angular rate (     0.0=NO )                           
*******************************************************************************
Initial IAU76/J2000 heliocentric ecliptic osculating elements (au, days, deg.):
  EPOCH=  2458376.5 ! 2018-Sep-15.00 (TDB)         Residual RMS= .12525        
   EC= .3382936082205208   QR= .9576766169446216   TP= 2458412.3293739939      
   OM= 161.903422202901    W=  234.5704247756858   IN= 9.466091569921099       
  Equivalent ICRF heliocentric cartesian coordinates (au, au/d):
   X= 1.017940821946709E+00  Y=-7.278189102440286E-02  Z=-7.249995171787897E-02
  VX=-1.754817228708964E-03 VY= 1.862872143473751E-02 VZ= 4.887370356508847E-03
Asteroid physical parameters (km, seconds, rotational period in hours):        
   GM= n.a.                RAD= n.a.               ROTPER= n.a.                
   H= 24.3                 G= .150                 B-V= n.a.                   
                           ALBEDO= n.a.            STYP= n.a.                  
*******************************************************************************
 Date__(UT)__HR:MN     R.A._________(ICRF)_________DEC
******************************************************
$$SOE
 2019-Jan-17 06:06  m  09 38 18.510013 -09 15 43.76938
 2019-Jan-17 06:07  m  09 38 18.441786 -09 15 42.52588
 2019-Jan-17 06:08  m  09 38 18.373554 -09 15 41.28230
 2019-Jan-17 06:09  m  09 38 18.305317 -09 15 40.03863
 2019-Jan-17 06:10  m  09 38 18.237076 -09 15 38.79487
 2019-Jan-17 06:11  m  09 38 18.168831 -09 15 37.55102
 2019-Jan-17 06:12  m  09 38 18.100581 -09 15 36.30708
 2019-Jan-17 06:13  m  09 38 18.032328 -09 15 35.06306
 2019-Jan-17 06:14  m  09 38 17.964070 -09 15 33.81895
 2019-Jan-17 06:15  m  09 38 17.895809 -09 15 32.57475
 2019-Jan-17 06:16  m  09 38 17.827544 -09 15 31.33046
 2019-Jan-17 06:17  m  09 38 17.759276 -09 15 30.08608
 2019-Jan-17 06:18  m  09 38 17.691005 -09 15 28.84162
 2019-Jan-17 06:19  m  09 38 17.622730 -09 15 27.59707
 2019-Jan-17 06:20  m  09 38 17.554452 -09 15 26.35243
 2019-Jan-17 06:21  m  09 38 17.486171 -09 15 25.10770
 2019-Jan-17 06:22  m  09 38 17.417887 -09 15 23.86288
 2019-Jan-17 06:23  m  09 38 17.349601 -09 15 22.61797
 2019-Jan-17 06:24  m  09 38 17.281312 -09 15 21.37298
 2019-Jan-17 06:25  m  09 38 17.213020 -09 15 20.12789
 2019-Jan-17 06:26  m  09 38 17.144727 -09 15 18.88272
 2019-Jan-17 06:27  m  09 38 17.076430 -09 15 17.63746
 2019-Jan-17 06:28  m  09 38 17.008132 -09 15 16.39212
 2019-Jan-17 06:29  m  09 38 16.939832 -09 15 15.14668
 2019-Jan-17 06:30  m  09 38 16.871530 -09 15 13.90115
 2019-Jan-17 06:31  m  09 38 16.803226 -09 15 12.65554
 2019-Jan-17 06:32  m  09 38 16.734921 -09 15 11.40984
 2019-Jan-17 06:33     09 38 16.666615 -09 15 10.16405
 2019-Jan-17 06:34     09 38 16.598306 -09 15 08.91817
 2019-Jan-17 06:35     09 38 16.529997 -09 15 07.67220
 2019-Jan-17 06:36     09 38 16.461687 -09 15 06.42615
 2019-Jan-17 06:37  t  09 38 16.393376 -09 15 05.18000
 2019-Jan-17 06:38     09 38 16.325064 -09 15 03.93377
 2019-Jan-17 06:39     09 38 16.256751 -09 15 02.68745
 2019-Jan-17 06:40     09 38 16.188438 -09 15 01.44104
 2019-Jan-17 06:41     09 38 16.120124 -09 15 00.19455
 2019-Jan-17 06:42     09 38 16.051810 -09 14 58.94796
 2019-Jan-17 06:43     09 38 15.983496 -09 14 57.70129
 2019-Jan-17 06:44     09 38 15.915181 -09 14 56.45452
 2019-Jan-17 06:45     09 38 15.846867 -09 14 55.20767
 2019-Jan-17 06:46     09 38 15.778553 -09 14 53.96074
 2019-Jan-17 06:47     09 38 15.710239 -09 14 52.71371
 2019-Jan-17 06:48     09 38 15.641926 -09 14 51.46659
 2019-Jan-17 06:49     09 38 15.573614 -09 14 50.21939
 2019-Jan-17 06:50     09 38 15.505302 -09 14 48.97210
 2019-Jan-17 06:51     09 38 15.436991 -09 14 47.72472
 2019-Jan-17 06:52     09 38 15.368680 -09 14 46.47725
 2019-Jan-17 06:53     09 38 15.300371 -09 14 45.22969
 2019-Jan-17 06:54     09 38 15.232064 -09 14 43.98205
 2019-Jan-17 06:55     09 38 15.163757 -09 14 42.73432
 2019-Jan-17 06:56     09 38 15.095452 -09 14 41.48650
 2019-Jan-17 06:57     09 38 15.027149 -09 14 40.23859
 2019-Jan-17 06:58     09 38 14.958847 -09 14 38.99059
 2019-Jan-17 06:59     09 38 14.890548 -09 14 37.74251
 2019-Jan-17 07:00     09 38 14.822250 -09 14 36.49434
 2019-Jan-17 07:01     09 38 14.753954 -09 14 35.24608
 2019-Jan-17 07:02     09 38 14.685661 -09 14 33.99773
 2019-Jan-17 07:03     09 38 14.617370 -09 14 32.74929
 2019-Jan-17 07:04     09 38 14.549081 -09 14 31.50077
 2019-Jan-17 07:05     09 38 14.480795 -09 14 30.25216
 2019-Jan-17 07:06     09 38 14.412512 -09 14 29.00346
 2019-Jan-17 07:07     09 38 14.344232 -09 14 27.75467
 2019-Jan-17 07:08     09 38 14.275955 -09 14 26.50580
 2019-Jan-17 07:09     09 38 14.207680 -09 14 25.25684
 2019-Jan-17 07:10     09 38 14.139409 -09 14 24.00779
 2019-Jan-17 07:11     09 38 14.071142 -09 14 22.75865
 2019-Jan-17 07:12     09 38 14.002878 -09 14 21.50943
 2019-Jan-17 07:13     09 38 13.934617 -09 14 20.26012
 2019-Jan-17 07:14     09 38 13.866361 -09 14 19.01072
 2019-Jan-17 07:15     09 38 13.798108 -09 14 17.76124
 2019-Jan-17 07:16     09 38 13.729859 -09 14 16.51166
 2019-Jan-17 07:17     09 38 13.661614 -09 14 15.26201
 2019-Jan-17 07:18     09 38 13.593374 -09 14 14.01226
 2019-Jan-17 07:19     09 38 13.525138 -09 14 12.76243
 2019-Jan-17 07:20     09 38 13.456907 -09 14 11.51251
 2019-Jan-17 07:21     09 38 13.388680 -09 14 10.26250
 2019-Jan-17 07:22     09 38 13.320458 -09 14 09.01240
 2019-Jan-17 07:23     09 38 13.252240 -09 14 07.76222
 2019-Jan-17 07:24     09 38 13.184028 -09 14 06.51196
 2019-Jan-17 07:25     09 38 13.115821 -09 14 05.26160
 2019-Jan-17 07:26     09 38 13.047619 -09 14 04.01116
 2019-Jan-17 07:27     09 38 12.979423 -09 14 02.76064
 2019-Jan-17 07:28     09 38 12.911232 -09 14 01.51002
 2019-Jan-17 07:29     09 38 12.843047 -09 14 00.25932
 2019-Jan-17 07:30     09 38 12.774867 -09 13 59.00854
 2019-Jan-17 07:31     09 38 12.706693 -09 13 57.75767
 2019-Jan-17 07:32     09 38 12.638526 -09 13 56.50671
 2019-Jan-17 07:33     09 38 12.570364 -09 13 55.25567
 2019-Jan-17 07:34     09 38 12.502209 -09 13 54.00454
 2019-Jan-17 07:35     09 38 12.434060 -09 13 52.75332
 2019-Jan-17 07:36     09 38 12.365918 -09 13 51.50202
 2019-Jan-17 07:37     09 38 12.297782 -09 13 50.25063
 2019-Jan-17 07:38     09 38 12.229653 -09 13 48.99916
 2019-Jan-17 07:39     09 38 12.161531 -09 13 47.74760
 2019-Jan-17 07:40     09 38 12.093415 -09 13 46.49596
 2019-Jan-17 07:41     09 38 12.025307 -09 13 45.24423
 2019-Jan-17 07:42     09 38 11.957207 -09 13 43.99242
 2019-Jan-17 07:43     09 38 11.889113 -09 13 42.74052
 2019-Jan-17 07:44     09 38 11.821027 -09 13 41.48854
 2019-Jan-17 07:45     09 38 11.752949 -09 13 40.23647
 2019-Jan-17 07:46     09 38 11.684878 -09 13 38.98431
 2019-Jan-17 07:47     09 38 11.616815 -09 13 37.73208
 2019-Jan-17 07:48     09 38 11.548760 -09 13 36.47975
 2019-Jan-17 07:49     09 38 11.480714 -09 13 35.22735
 2019-Jan-17 07:50     09 38 11.412675 -09 13 33.97485
 2019-Jan-17 07:51     09 38 11.344645 -09 13 32.72228
 2019-Jan-17 07:52     09 38 11.276623 -09 13 31.46962
 2019-Jan-17 07:53     09 38 11.208610 -09 13 30.21687
 2019-Jan-17 07:54     09 38 11.140605 -09 13 28.96405
 2019-Jan-17 07:55     09 38 11.072610 -09 13 27.71113
 2019-Jan-17 07:56     09 38 11.004623 -09 13 26.45814
 2019-Jan-17 07:57     09 38 10.936645 -09 13 25.20506
 2019-Jan-17 07:58     09 38 10.868677 -09 13 23.95190
 2019-Jan-17 07:59     09 38 10.800717 -09 13 22.69865
 2019-Jan-17 08:00     09 38 10.732767 -09 13 21.44532
 2019-Jan-17 08:01     09 38 10.664827 -09 13 20.19191
 2019-Jan-17 08:02     09 38 10.596897 -09 13 18.93841
 2019-Jan-17 08:03     09 38 10.528976 -09 13 17.68483
 2019-Jan-17 08:04     09 38 10.461065 -09 13 16.43117
 2019-Jan-17 08:05     09 38 10.393164 -09 13 15.17742
 2019-Jan-17 08:06     09 38 10.325273 -09 13 13.92360
 2019-Jan-17 08:07     09 38 10.257392 -09 13 12.66969
 2019-Jan-17 08:08     09 38 10.189522 -09 13 11.41570
